HULIANWANG DIGUI-17     
1 62977U 25030G   26064.96381458 -.00000085  00000+0  83363-4 0  9993
2 62977  50.0046 245.7895 0000757 159.8384 200.2519 13.29338270 52133
HULIANWANG DIGUI-18     
1 62978U 25030H   26064.95544146 -.00000084  00000+0  85303-4 0  9993
2 62978  50.0051 245.7561 0000769 159.9651 200.1251 13.29338292 52137
HULIANWANG DIGUI-19     
1 62979U 25030J   26064.91347192 -.00000077  00000+0  10187-3 0  9991
2 62979  50.0036 246.1545 0000812 155.1338 204.9573 13.29341511 52123
HULIANWANG DIGUI-20     
1 63687U 25086A   26064.97700580  .00000076  00000+0  14268-3 0  9991
2 63687  86.5126 347.8872 0001748  91.6006 268.5328 13.24420254 41210
HULIANWANG DIGUI-21     
1 63688U 25086B   26064.98449707  .00000063  00000+0  11279-3 0  9999
2 63688  86.5154 347.9142 0001639  94.5748 265.5574 13.24421855 41204
HULIANWANG DIGUI-22     
1 63689U 25086C   26064.91651357  .00000055  00000+0  94588-4 0  9995
2 63689  86.5119 347.8399 0001815  91.6666 268.4676 13.24421551 41198
HULIANWANG DIGUI-23     
1 63690U 25086D   26064.93157103  .00000055  00000+0  94586-4 0  9997
2 63690  86.5160 347.9716 0001751  88.0396 272.0939 13.24422305 41190
HULIANWANG DIGUI-24     
1 63691U 25086E   26064.93918422  .00000067  00000+0  12235-3 0  9990
2 63691  86.5167 347.9958 0001790  92.2671 267.8668 13.24420390 41195
HULIANWANG DIGUI-25     
1 63692U 25086F   26064.94671552  .00000078  00000+0  14652-3 0  9999
2 63692  86.5105 347.8147 0001689  91.3126 268.8202 13.24421800 41191
HULIANWANG DIGUI-26     
1 63693U 25086G   26064.92394348  .00000052  00000+0  87564-4 0  9998
2 63693  86.5154 347.9491 0001767  96.4234 263.7101 13.24421343 41196
HULIANWANG DIGUI-27     
1 63694U 25086H   26064.95434986  .00000084  00000+0  16171-3 0  9995
2 63694  86.5115 347.8467 0001799  91.2888 268.8452 13.24420180 41192
HULIANWANG DIGUI-28     
1 63695U 25086J   26064.96938143  .00000090  00000+0  17625-3 0  9993
2 63695  86.5080 347.7459 0001796  91.2805 268.8535 13.24421567 41192
HULIANWANG DIGUI-29     
1 63696U 25086K   26064.96190583  .00000091  00000+0  17859-3 0  9992
2 63696  86.5108 347.8287 0001681  91.7937 268.3389 13.24420374 41195
HULIANWANG DIGUI-30     
1 64283U 25121A   26064.96927347  .00000050  00000+0  81757-4 0  9995
2 64283  86.4949  48.3803 0001989  78.2163 281.9194 13.24423402 36496
HULIANWANG DIGUI-31     
1 64284U 25121B   26064.96194301  .00000043  00000+0  66389-4 0  9998
2 64284  86.4969  48.4334 0002008  78.5247 281.6112 13.24419602 36492
HULIANWANG DIGUI-32     
1 64285U 25121C   26064.95402944  .00000026  00000+0  25489-4 0  9990
2 64285  86.4911  48.2652 0002004  80.5009 279.6352 13.24425254 36499
