[{"OBJECT_NAME":"HULIANWANG DIGUI-17","OBJECT_ID":"2025-030G","EPOCH":"2026-03-05T23:07:53.579712","MEAN_MOTION":13.2933827,"ECCENTRICITY":7.577e-5,"INCLINATION":50.0046,"RA_OF_ASC_NODE":245.7895,"ARG_OF_PERICENTER":159.8384,"MEAN_ANOMALY":200.2519,"EPHEMERIS_TYPE":0,"CLASSIFICATION_TYPE":"U","NORAD_CAT_ID":62977,"ELEMENT_SET_NO":999,"REV_AT_EPOCH":5213,"BSTAR":8.3362659e-5,"MEAN_MOTION_DOT":-8.5e-7,"MEAN_MOTION_DDOT":0},{"OBJECT_NAME":"HULIANWANG DIGUI-18","OBJECT_ID":"2025-030H","EPOCH":"2026-03-05T22:55:50.142144","MEAN_MOTION":13.29338292,"ECCENTRICITY":7.697e-5,"INCLINATION":50.0051,"RA_OF_ASC_NODE":245.7561,"ARG_OF_PERICENTER":159.9651,"MEAN_ANOMALY":200.1251,"EPHEMERIS_TYPE":0,"CLASSIFICATION_TYPE":"U","NORAD_CAT_ID":62978,"ELEMENT_SET_NO":999,"REV_AT_EPOCH":5213,"BSTAR":8.5302983e-5,"MEAN_MOTION_DOT":-8.4e-7,"MEAN_MOTION_DDOT":0},{"OBJECT_NAME":"HULIANWANG DIGUI-19","OBJECT_ID":"2025-030J","EPOCH":"2026-03-05T21:55:23.973888","MEAN_MOTION":13.29341511,"ECCENTRICITY":8.129e-5,"INCLINATION":50.0036,"RA_OF_ASC_NODE":246.1545,"ARG_OF_PERICENTER":155.1338,"MEAN_ANOMALY":204.9573,"EPHEMERIS_TYPE":0,"CLASSIFICATION_TYPE":"U","NORAD_CAT_ID":62979,"ELEMENT_SET_NO":999,"REV_AT_EPOCH":5212,"BSTAR":0.00010186639,"MEAN_MOTION_DOT":-7.7e-7,"MEAN_MOTION_DDOT":0},{"OBJECT_NAME":"HULIANWANG DIGUI-20","OBJECT_ID":"2025-086A","EPOCH":"2026-03-05T23:26:53.301120","MEAN_MOTION":13.24420254,"ECCENTRICITY":0.00017482,"INCLINATION":86.5126,"RA_OF_ASC_NODE":347.8872,"ARG_OF_PERICENTER":91.6006,"MEAN_ANOMALY":268.5328,"EPHEMERIS_TYPE":0,"CLASSIFICATION_TYPE":"U","NORAD_CAT_ID":63687,"ELEMENT_SET_NO":999,"REV_AT_EPOCH":4121,"BSTAR":0.00014268271,"MEAN_MOTION_DOT":7.6e-7,"MEAN_MOTION_DDOT":0},{"OBJECT_NAME":"HULIANWANG DIGUI-21","OBJECT_ID":"2025-086B","EPOCH":"2026-03-05T23:37:40.546848","MEAN_MOTION":13.24421855,"ECCENTRICITY":0.00016399,"INCLINATION":86.5154,"RA_OF_ASC_NODE":347.9142,"ARG_OF_PERICENTER":94.5748,"MEAN_ANOMALY":265.5574,"EPHEMERIS_TYPE":0,"CLASSIFICATION_TYPE":"U","NORAD_CAT_ID":63688,"ELEMENT_SET_NO":999,"REV_AT_EPOCH":4120,"BSTAR":0.00011279118,"MEAN_MOTION_DOT":6.3e-7,"MEAN_MOTION_DDOT":0},{"OBJECT_NAME":"HULIANWANG DIGUI-22","OBJECT_ID":"2025-086C","EPOCH":"2026-03-05T21:59:46.772448","MEAN_MOTION":13.24421551,"ECCENTRICITY":0.00018154,"INCLINATION":86.5119,"RA_OF_ASC_NODE":347.8399,"ARG_OF_PERICENTER":91.6666,"MEAN_ANOMALY":268.4676,"EPHEMERIS_TYPE":0,"CLASSIFICATION_TYPE":"U","NORAD_CAT_ID":63689,"ELEMENT_SET_NO":999,"REV_AT_EPOCH":4119,"BSTAR":9.4588007e-5,"MEAN_MOTION_DOT":5.5e-7,"MEAN_MOTION_DDOT":0},{"OBJECT_NAME":"HULIANWANG DIGUI-23","OBJECT_ID":"2025-086D","EPOCH":"2026-03-05T22:21:27.736992","MEAN_MOTION":13.24422305,"ECCENTRICITY":0.00017511,"INCLINATION":86.516,"RA_OF_ASC_NODE":347.9716,"ARG_OF_PERICENTER":88.0396,"MEAN_ANOMALY":272.0939,"EPHEMERIS_TYPE":0,"CLASSIFICATION_TYPE":"U","NORAD_CAT_ID":63690,"ELEMENT_SET_NO":999,"REV_AT_EPOCH":4119,"BSTAR":9.4586018e-5,"MEAN_MOTION_DOT":5.5e-7,"MEAN_MOTION_DDOT":0},{"OBJECT_NAME":"HULIANWANG DIGUI-24","OBJECT_ID":"2025-086E","EPOCH":"2026-03-05T22:32:25.516608","MEAN_MOTION":13.2442039,"ECCENTRICITY":0.00017908,"INCLINATION":86.5167,"RA_OF_ASC_NODE":347.9958,"ARG_OF_PERICENTER":92.2671,"MEAN_ANOMALY":267.8668,"EPHEMERIS_TYPE":0,"CLASSIFICATION_TYPE":"U","NORAD_CAT_ID":63691,"ELEMENT_SET_NO":999,"REV_AT_EPOCH":4119,"BSTAR":0.00012235066,"MEAN_MOTION_DOT":6.7e-7,"MEAN_MOTION_DDOT":0},{"OBJECT_NAME":"HULIANWANG DIGUI-25","OBJECT_ID":"2025-086F","EPOCH":"2026-03-05T22:43:16.220928","MEAN_MOTION":13.244218,"ECCENTRICITY":0.00016899,"INCLINATION":86.5105,"RA_OF_ASC_NODE":347.8147,"ARG_OF_PERICENTER":91.3126,"MEAN_ANOMALY":268.8202,"EPHEMERIS_TYPE":0,"CLASSIFICATION_TYPE":"U","NORAD_CAT_ID":63692,"ELEMENT_SET_NO":999,"REV_AT_EPOCH":4119,"BSTAR":0.00014651905,"MEAN_MOTION_DOT":7.8e-7,"MEAN_MOTION_DDOT":0},{"OBJECT_NAME":"HULIANWANG DIGUI-26","OBJECT_ID":"2025-086G","EPOCH":"2026-03-05T22:10:28.716672","MEAN_MOTION":13.24421343,"ECCENTRICITY":0.00017677,"INCLINATION":86.5154,"RA_OF_ASC_NODE":347.9491,"ARG_OF_PERICENTER":96.4234,"MEAN_ANOMALY":263.7101,"EPHEMERIS_TYPE":0,"CLASSIFICATION_TYPE":"U","NORAD_CAT_ID":63693,"ELEMENT_SET_NO":999,"REV_AT_EPOCH":4119,"BSTAR":8.7563952e-5,"MEAN_MOTION_DOT":5.2e-7,"MEAN_MOTION_DDOT":0},{"OBJECT_NAME":"HULIANWANG DIGUI-27","OBJECT_ID":"2025-086H","EPOCH":"2026-03-05T22:54:15.827904","MEAN_MOTION":13.2442018,"ECCENTRICITY":0.00017994,"INCLINATION":86.5115,"RA_OF_ASC_NODE":347.8467,"ARG_OF_PERICENTER":91.2888,"MEAN_ANOMALY":268.8452,"EPHEMERIS_TYPE":0,"CLASSIFICATION_TYPE":"U","NORAD_CAT_ID":63694,"ELEMENT_SET_NO":999,"REV_AT_EPOCH":4119,"BSTAR":0.00016170633,"MEAN_MOTION_DOT":8.4e-7,"MEAN_MOTION_DDOT":0},{"OBJECT_NAME":"HULIANWANG DIGUI-28","OBJECT_ID":"2025-086J","EPOCH":"2026-03-05T23:15:54.555552","MEAN_MOTION":13.24421567,"ECCENTRICITY":0.00017962,"INCLINATION":86.508,"RA_OF_ASC_NODE":347.7459,"ARG_OF_PERICENTER":91.2805,"MEAN_ANOMALY":268.8535,"EPHEMERIS_TYPE":0,"CLASSIFICATION_TYPE":"U","NORAD_CAT_ID":63695,"ELEMENT_SET_NO":999,"REV_AT_EPOCH":4119,"BSTAR":0.00017625322,"MEAN_MOTION_DOT":9.0e-7,"MEAN_MOTION_DDOT":0},{"OBJECT_NAME":"HULIANWANG DIGUI-29","OBJECT_ID":"2025-086K","EPOCH":"2026-03-05T23:05:08.663712","MEAN_MOTION":13.24420374,"ECCENTRICITY":0.00016815,"INCLINATION":86.5108,"RA_OF_ASC_NODE":347.8287,"ARG_OF_PERICENTER":91.7937,"MEAN_ANOMALY":268.3389,"EPHEMERIS_TYPE":0,"CLASSIFICATION_TYPE":"U","NORAD_CAT_ID":63696,"ELEMENT_SET_NO":999,"REV_AT_EPOCH":4119,"BSTAR":0.00017858542,"MEAN_MOTION_DOT":9.1e-7,"MEAN_MOTION_DDOT":0},{"OBJECT_NAME":"HULIANWANG DIGUI-30","OBJECT_ID":"2025-121A","EPOCH":"2026-03-05T23:15:45.227808","MEAN_MOTION":13.24423402,"ECCENTRICITY":0.00019891,"INCLINATION":86.4949,"RA_OF_ASC_NODE":48.3803,"ARG_OF_PERICENTER":78.2163,"MEAN_ANOMALY":281.9194,"EPHEMERIS_TYPE":0,"CLASSIFICATION_TYPE":"U","NORAD_CAT_ID":64283,"ELEMENT_SET_NO":999,"REV_AT_EPOCH":3649,"BSTAR":8.175689e-5,"MEAN_MOTION_DOT":5.0e-7,"MEAN_MOTION_DDOT":0},{"OBJECT_NAME":"HULIANWANG DIGUI-31","OBJECT_ID":"2025-121B","EPOCH":"2026-03-05T23:05:11.876064","MEAN_MOTION":13.24419602,"ECCENTRICITY":0.00020084,"INCLINATION":86.4969,"RA_OF_ASC_NODE":48.4334,"ARG_OF_PERICENTER":78.5247,"MEAN_ANOMALY":281.6112,"EPHEMERIS_TYPE":0,"CLASSIFICATION_TYPE":"U","NORAD_CAT_ID":64284,"ELEMENT_SET_NO":999,"REV_AT_EPOCH":3649,"BSTAR":6.6389074e-5,"MEAN_MOTION_DOT":4.3e-7,"MEAN_MOTION_DDOT":0},{"OBJECT_NAME":"HULIANWANG DIGUI-32","OBJECT_ID":"2025-121C","EPOCH":"2026-03-05T22:53:48.143616","MEAN_MOTION":13.24425254,"ECCENTRICITY":0.00020044,"INCLINATION":86.4911,"RA_OF_ASC_NODE":48.2652,"ARG_OF_PERICENTER":80.5009,"MEAN_ANOMALY":279.6352,"EPHEMERIS_TYPE":0,"CLASSIFICATION_TYPE":"U","NORAD_CAT_ID":64285,"ELEMENT_SET_NO":999,"REV_AT_EPOCH":3649,"BSTAR":2.5489085e-5,"MEAN_MOTION_DOT":2.6e-7,"MEAN_MOTION_DDOT":0}]
